[{"OBJECT_NAME":"OBJECT G","OBJECT_ID":"2025-155G","EPOCH":"2026-03-09T22:09:56.639808","MEAN_MOTION":15.27590702,"ECCENTRICITY":0.00081871,"INCLINATION":97.4488,"RA_OF_ASC_NODE":37.3259,"ARG_OF_PERICENTER":154.1528,"MEAN_ANOMALY":206.0122,"EPHEMERIS_TYPE":0,"CLASSIFICATION_TYPE":"U","NORAD_CAT_ID":64882,"ELEMENT_SET_NO":999,"REV_AT_EPOCH":6559,"BSTAR":0.0004792617,"MEAN_MOTION_DOT":0.00012876,"MEAN_MOTION_DDOT":0},{"OBJECT_NAME":"STARLINK-36481","OBJECT_ID":"2026-002C","EPOCH":"2026-03-09T01:46:48.422784","MEAN_MOTION":15.27611965,"ECCENTRICITY":0.0001216,"INCLINATION":42.9981,"RA_OF_ASC_NODE":328.836,"ARG_OF_PERICENTER":260.8046,"MEAN_ANOMALY":99.2668,"EPHEMERIS_TYPE":0,"CLASSIFICATION_TYPE":"U","NORAD_CAT_ID":67307,"ELEMENT_SET_NO":999,"REV_AT_EPOCH":1098,"BSTAR":0.0010584992,"MEAN_MOTION_DOT":0.00029009,"MEAN_MOTION_DDOT":0}]
